#dP2024  7  9 18  0  0.00000000      96 __u+U IGS20 EXT  IAC
## 2322 237600.00000000   900.00000000 60500 0.7500000000000
+   54   G02G03G04G05G06G07G08G09G10G11G12G13G14G15G16G17G18
+        G19G20G21G22G23G24G25G26G27G28G29G30G31G32R01R02R03
+        R04R05R07R08R09R11R12R13R14R15R16R17R18R19R20R21R22
+        R24R25R26  0  0  0  0  0  0  0  0  0  0  0  0  0  0
+          0  0  0  0  0  0  0  0  0  0  0  0  0  0  0  0  0
++         8  7  9  6  6  8  9  8  6  8  8  7  7  7  7  7  7
++         9  9  8  6  6  8  8  8  8  8  7  8  8  7  9  8  9
++         8  8  7  6  7  8  7  8  7  7  7  7  8  8  8  8  9
++         9  8 10  0  0  0  0  0  0  0  0  0  0  0  0  0  0
++         0  0  0  0  0  0  0  0  0  0  0  0  0  0  0  0  0
%c M  cc GPS ccc cccc cccc cccc cccc ccccc ccccc ccccc ccccc
%c cc cc ccc ccc cccc cccc cccc cccc ccccc ccccc ccccc ccccc
%f  0.0000000  0.000000000  0.00000000000  0.000000000000000
%f  0.0000000  0.000000000  0.00000000000  0.000000000000000
%i    0    0    0    0      0      0      0      0         0
%i    0    0    0    0      0      0      0      0         0
/* IAC                                ULTRA-RAPID PREDICTION
/* S/V CLOCKS ARE ALIGNED TO GNSS TIME                      
/* G:C1WC2W R:C1PC2P E:C1XC5X C:C2IC6I J:C1CC2S             
/* PCV:IGS20_2317 OL/AL:FES2004  NONE     YN ORB:CoN CLK:CoN
*  2024 07 09 21 30  0.00000000
PG02 -14117.066682  17393.389945  14501.716844   -402.154627
PG03 -19845.018260  12703.491184 -12301.269686    451.013398
PG04 -10184.831971  11259.465448 -21770.689658    400.445869
PG05  25983.943696  -4747.384675  -3361.040182   -179.188220
PG06   7344.006039  17157.678199 -18792.700602    171.138837
PG07  -4832.231666  25588.739668   4256.160520    -73.370121
PG08 -18204.161778   1120.328252  19339.260094    267.311743
PG09   1417.198154  19578.289785 -17951.929806    266.811671
PG10 -11482.471249 -11812.659492  21115.759901    -62.110300
PG11  14802.510986   3332.794645 -21773.335409   -701.833059
PG12  22180.750388 -10608.641918 -10261.232301   -520.945155
PG13  19256.854805   8767.443286  15986.932851    663.482639
PG14   7207.505148  14246.423875  21290.075234    444.997556
PG15  17874.702220  -3523.022117  18883.371172    179.290326
PG16 -26095.067114   -971.236205  -6340.437567   -241.222499
PG17  12009.379125  22597.322545   7204.509367    680.645540
PG18   5288.865347 -25521.805308   4501.756814   -634.750313
PG19  17260.927522  20348.769900  -2499.179198    508.140521
PG20  23114.947700    199.228788 -12879.746801    372.937580
PG21 -15449.072674  11659.093605  18130.434031    109.998613
PG22  14871.026643  11498.254830  19066.272859    -37.621625
PG23   2061.961442 -15415.607337  21522.202854    269.967274
PG24  14509.773193 -15978.492315  14778.942096   -482.378530
PG25  12737.959906 -15828.559457 -17307.829206    498.344811
PG26 -19380.171274  -7241.889432 -17005.410230    122.842248
PG27 -21264.213058  -9971.846648  12510.056779    -30.709167
PG28  -6996.470905 -19174.230456 -17005.084734   -324.441035
PG29   3106.079842 -17678.040398 -19583.508167   -590.347128
PG30   3180.489753  22710.442481  13319.872386   -360.556440
PG31 -13420.553563  -8148.111933 -21605.232976   -226.882748
PG32 -14987.479992 -21443.317808   5379.475660   -612.966841
PR01  23556.212290   7308.464731   6541.377203     90.880828
PR02  15493.377415  -2670.926408  20108.783615    -23.649428
PR03  -1160.078043 -12244.613057  22400.685010    103.503834
PR04 -16591.316954 -14811.694670  12529.257044    244.629323
PR05 -23262.123051  -9660.978248  -4086.847496    134.303237
PR07   1812.716919  12438.960780 -22147.982118     86.308121
PR08  16895.675970  14656.469590 -12175.221168     -5.759446
PR09 -20897.595425  14515.577683   -943.406754    196.781894
PR11   3232.776697  10950.925575  22822.658696     18.707042
PR12  18695.689366  -2764.587253  17157.074171     42.253765
PR13  21653.443346 -12981.082776   3638.469820    -49.150950
PR14  11495.878865 -16962.243807 -15189.328126     26.671066
PR15  -4770.052253 -10103.221075 -22905.773836     78.033314
PR16 -18495.092017   2793.112024 -17307.237587     27.213875
PR17   1395.234892 -24628.507504  -6395.703736    103.166812
PR18  -5707.483529 -22757.010487  10072.771576    151.141620
PR19  -9504.651999 -11332.033900  20773.909654   -283.296534
PR20  -9069.641989  11694.043803  20769.518704   -115.858758
PR21  -1762.604633  24541.849544   6787.017348   -116.175528
PR22   5784.266070  22252.154536 -11017.970006     91.009142
PR24   8805.379605 -12661.746694 -20298.955245    -63.126710
PR25  -2290.010756  24689.780066   6045.271376    -95.601860
PR26  15990.134564  14690.060776 -13387.048478      3.469530
*  2024 07 09 21 45  0.00000000
PG02 -13970.809754  15680.693409  16547.515218   -402.148038
PG03 -21089.198435  12848.874432  -9779.178238    451.028346
PG04 -11875.061594   9424.391680 -21798.104829    400.452911
PG05  25547.179385  -4391.996753  -6165.633605   -179.189398
PG06   6659.605052  19105.479330 -17087.715990    171.118569
PG07  -5210.690324  25766.987880   1419.416504    -73.362927
PG08 -19673.314165   -442.923787  17920.831643    267.326650
PG09   -201.457619  18196.179240 -19413.116091    266.825162
PG10  -9163.136108 -12440.737018  21854.524339    -62.118837
PG11  14026.747654   5705.794731 -21799.529491   -701.839403
PG12  23196.939084 -10565.577273  -7652.543046   -520.947964
PG13  20160.248304  10255.001822  13899.642286    663.484818
PG14   4829.292051  14820.270576  21549.940192    445.005606
PG15  19519.014484  -2088.618170  17469.479962    179.294140
PG16 -25312.625488  -1304.776383  -8992.423645   -241.212930
PG17  11235.358413  22040.910871   9858.546604    680.639025
PG18   5609.779490 -25792.879456   1635.205501   -634.754078
PG19  17166.135355  20556.342985    342.971527    508.145393
PG20  21738.818130   1072.440225 -15053.123547    372.937199
PG21 -15239.438764   9549.004866  19610.270555    109.996345
PG22  12736.717192  11967.405800  20334.809287    -37.625795
PG23   4395.651188 -16019.729151  20696.481253    269.975340
PG24  14435.477416 -14071.503742  16657.656177   -482.380128
PG25  14552.726523 -16131.326714 -15438.755612    498.345169
PG26 -17541.584769  -8056.324077 -18544.513221    122.836117
PG27 -22058.829743 -11043.276368  10090.997148    -30.710060
PG28  -6396.656395 -20915.906792 -15077.979146   -324.455482
PG29   4658.344662 -15983.095881 -20713.906921   -590.345431
PG30   2536.507317  23969.038080  11003.382041   -360.550627
PG31 -12662.883000 -10428.224026 -21035.157337   -226.882511
PG32 -14307.326776 -21075.706597   8088.532335   -612.965191
PR01  24178.858000   7409.465168   3406.006202     90.881885
PR02  17679.736613  -1764.010304  18316.767642    -23.649583
PR03   1370.615315 -11070.633388  22988.469082    103.504176
PR04 -15107.813346 -13964.938887  15115.756537    244.630697
PR05 -23617.781423  -9626.108233   -878.928114    134.303703
PR07   -713.888045  11262.713513 -22832.230427     86.308765
PR08  15422.269310  13848.461473 -14786.699841     -5.759694
PR09 -20597.021346  14388.462904  -4113.525930    196.783791
PR11   1022.100878  12623.114849  22153.248005     18.706024
PR12  16845.219080  -1513.695881  19121.416166     42.254168
PR13  21064.079122 -12696.694299   6758.232186    -49.151316
PR14  12820.969931 -18062.140404 -12653.997377     26.671106
PR15  -2514.040173 -11770.044929 -22465.800209     78.032998
PR16 -16621.174445   1524.405491 -19258.107359     27.214243
PR17   1313.018585 -23636.886102  -9435.601876    103.169851
PR18  -5988.510729 -23793.628233   7065.480832    151.143367
PR19  -9746.061035 -13789.241531  19109.341312   -283.297737
PR20  -9117.866085   9047.503586  22034.295196   -115.859208
PR21  -1661.208406  23504.083474   9807.832069   -116.178332
PR22   5987.759992  23425.366455  -8095.411562     91.003668
PR24   8990.215201 -10077.238505 -21623.428348    -63.128030
PR25  -2201.409985  23750.985191   9077.286671    -95.603729
PR26  14389.165025  13838.514068 -15873.983666      3.471325
EOF
